start=new Date('2022-10-11T00:00:00.000Z').valueOf();
sats=[{"SITE":"AFETR","NORAD_CAT_ID":"48651","OBJECT_NAME":"STARLINK-2731","TLE_LINE2":"2 48651  53.0549 316.0191 0001892  53.4591 306.6572 15.06399599 75872","FILE":"3600948","DECAY_DATE":null,"MEAN_ANOMALY":"306.6572","TIME_SYSTEM":"UTC","SEMIMAJOR_AXIS":"6925.350","ARG_OF_PERICENTER":"53.4591","OBJECT_TYPE":"PAYLOAD","LAUNCH_DATE":"2021-05-26","PERIAPSIS":"545.905","MEAN_MOTION_DOT":"0.00001096","APOAPSIS":"548.525","REF_FRAME":"TEME","OBJECT_ID":"2021-044P","GP_ID":"214674702","CLASSIFICATION_TYPE":"U","BSTAR":"0.00009250700000","COUNTRY_CODE":"US","PERIOD":"95.592","MEAN_MOTION":"15.06399599","EPHEMERIS_TYPE":"0","MEAN_MOTION_DDOT":"0.0000000000000","INCLINATION":"53.0549","RCS_SIZE":"LARGE","ELEMENT_SET_NO":"999","TLE_LINE1":"1 48651U 21044P   22283.49301290  .00001096  00000-0  92507-4 0  9993","ECCENTRICITY":"0.00018920","EPOCH":"2022-10-10T11:49:56.314560","CENTER_NAME":"EARTH","RA_OF_ASC_NODE":"316.0191","REV_AT_EPOCH":"7587","MEAN_ELEMENT_THEORY":"SGP4"},{"CENTER_NAME":"EARTH","REV_AT_EPOCH":"7671","RA_OF_ASC_NODE":"316.0447","ECCENTRICITY":"0.00017880","EPOCH":"2022-10-10T11:44:38.013504","MEAN_ELEMENT_THEORY":"SGP4","MEAN_MOTION_DDOT":"0.0000000000000","INCLINATION":"53.0538","MEAN_MOTION":"15.06392768","EPHEMERIS_TYPE":"0","ELEMENT_SET_NO":"999","RCS_SIZE":"LARGE","COUNTRY_CODE":"US","PERIOD":"95.593","TLE_LINE1":"1 48652U 21044Q   22283.48932886  .00002480  00000-0  18536-3 0  9991","PERIAPSIS":"545.997","LAUNCH_DATE":"2021-05-26","OBJECT_TYPE":"PAYLOAD","MEAN_MOTION_DOT":"0.00002480","ARG_OF_PERICENTER":"50.3267","BSTAR":"0.00018536000000","CLASSIFICATION_TYPE":"U","APOAPSIS":"548.474","GP_ID":"214633065","OBJECT_ID":"2021-044Q","REF_FRAME":"TEME","TLE_LINE2":"2 48652  53.0538 316.0447 0001788  50.3267 309.7879 15.06392768 76714","OBJECT_NAME":"STARLINK-2727","SITE":"AFETR","NORAD_CAT_ID":"48652","SEMIMAJOR_AXIS":"6925.371","TIME_SYSTEM":"UTC","FILE":"3600065","DECAY_DATE":null,"MEAN_ANOMALY":"309.7879"},{"TLE_LINE1":"1 48653U 21044R   22283.81736890  .00000883  00000-0  78161-4 0  9992","MEAN_MOTION_DDOT":"0.0000000000000","INCLINATION":"53.0556","EPHEMERIS_TYPE":"0","MEAN_MOTION":"15.06404664","ELEMENT_SET_NO":"999","RCS_SIZE":"LARGE","COUNTRY_CODE":"US","PERIOD":"95.592","MEAN_ELEMENT_THEORY":"SGP4","CENTER_NAME":"EARTH","REV_AT_EPOCH":"7592","RA_OF_ASC_NODE":"314.5667","ECCENTRICITY":"0.00018860","EPOCH":"2022-10-10T19:37:00.672960","SEMIMAJOR_AXIS":"6925.334","TIME_SYSTEM":"UTC","FILE":"3601747","DECAY_DATE":null,"MEAN_ANOMALY":"311.6197","OBJECT_NAME":"STARLINK-2720","TLE_LINE2":"2 48653  53.0556 314.5667 0001886  48.4954 311.6197 15.06404664 75928","NORAD_CAT_ID":"48653","SITE":"AFETR","BSTAR":"0.00007816100000","CLASSIFICATION_TYPE":"U","APOAPSIS":"548.505","GP_ID":"214716221","OBJECT_ID":"2021-044R","REF_FRAME":"TEME","LAUNCH_DATE":"2021-05-26","PERIAPSIS":"545.893","OBJECT_TYPE":"PAYLOAD","MEAN_MOTION_DOT":"0.00000883","ARG_OF_PERICENTER":"48.4954"},{"ARG_OF_PERICENTER":"64.8754","OBJECT_TYPE":"PAYLOAD","LAUNCH_DATE":"2021-05-26","PERIAPSIS":"546.050","MEAN_MOTION_DOT":"0.00002358","APOAPSIS":"548.381","REF_FRAME":"TEME","GP_ID":"214681309","OBJECT_ID":"2021-044S","CLASSIFICATION_TYPE":"U","BSTAR":"0.00017718000000","SITE":"AFETR","NORAD_CAT_ID":"48654","OBJECT_NAME":"STARLINK-2651","TLE_LINE2":"2 48654  53.0552 314.5830 0001683  64.8754 295.2410 15.06399294 76829","FILE":"3601102","DECAY_DATE":null,"MEAN_ANOMALY":"295.2410","TIME_SYSTEM":"UTC","SEMIMAJOR_AXIS":"6925.351","ECCENTRICITY":"0.00016830","EPOCH":"2022-10-10T19:31:42.501504","CENTER_NAME":"EARTH","RA_OF_ASC_NODE":"314.5830","REV_AT_EPOCH":"7682","MEAN_ELEMENT_THEORY":"SGP4","COUNTRY_CODE":"US","PERIOD":"95.592","MEAN_MOTION":"15.06399294","EPHEMERIS_TYPE":"0","MEAN_MOTION_DDOT":"0.0000000000000","INCLINATION":"53.0552","RCS_SIZE":"LARGE","ELEMENT_SET_NO":"999","TLE_LINE1":"1 48654U 21044S   22283.81368636  .00002358  00000-0  17718-3 0  9991"},{"APOAPSIS":"548.616","REF_FRAME":"TEME","OBJECT_ID":"2021-044T","GP_ID":"214680805","CLASSIFICATION_TYPE":"U","BSTAR":"0.00001693200000","ARG_OF_PERICENTER":"43.7046","OBJECT_TYPE":"PAYLOAD","PERIAPSIS":"545.865","LAUNCH_DATE":"2021-05-26","MEAN_MOTION_DOT":"-0.00000030","FILE":"3601102","DECAY_DATE":null,"MEAN_ANOMALY":"316.4100","SEMIMAJOR_AXIS":"6925.376","TIME_SYSTEM":"UTC","SITE":"AFETR","NORAD_CAT_ID":"48655","OBJECT_NAME":"STARLINK-2657","TLE_LINE2":"2 48655  53.0550 314.6002 0001986  43.7046 316.4100 15.06391202 76762","MEAN_ELEMENT_THEORY":"SGP4","ECCENTRICITY":"0.00019860","EPOCH":"2022-10-10T19:26:24.998784","CENTER_NAME":"EARTH","RA_OF_ASC_NODE":"314.6002","REV_AT_EPOCH":"7676","TLE_LINE1":"1 48655U 21044T   22283.81001156 -.00000030  00000-0  16932-4 0  9997","COUNTRY_CODE":"US","PERIOD":"95.593","MEAN_MOTION":"15.06391202","EPHEMERIS_TYPE":"0","MEAN_MOTION_DDOT":"0.0000000000000","INCLINATION":"53.0550","RCS_SIZE":"LARGE","ELEMENT_SET_NO":"999"},{"APOAPSIS":"548.682","OBJECT_ID":"2021-044U","GP_ID":"214681324","REF_FRAME":"TEME","BSTAR":"-0.00010295000000","CLASSIFICATION_TYPE":"U","ARG_OF_PERICENTER":"48.7581","PERIAPSIS":"545.817","LAUNCH_DATE":"2021-05-26","OBJECT_TYPE":"PAYLOAD","MEAN_MOTION_DOT":"-0.00001814","FILE":"3601104","DECAY_DATE":null,"MEAN_ANOMALY":"311.3586","SEMIMAJOR_AXIS":"6925.385","TIME_SYSTEM":"UTC","NORAD_CAT_ID":"48656","SITE":"AFETR","OBJECT_NAME":"STARLINK-2701","TLE_LINE2":"2 48656  53.0541 314.6193 0002068  48.7581 311.3586 15.06388262 76769","MEAN_ELEMENT_THEORY":"SGP4","ECCENTRICITY":"0.00020680","EPOCH":"2022-10-10T19:21:06.219072","CENTER_NAME":"EARTH","REV_AT_EPOCH":"7676","RA_OF_ASC_NODE":"314.6193","TLE_LINE1":"1 48656U 21044U   22283.80632198 -.00001814  00000-0 -10295-3 0  9990","COUNTRY_CODE":"US","PERIOD":"95.593","MEAN_MOTION_DDOT":"0.0000000000000","INCLINATION":"53.0541","MEAN_MOTION":"15.06388262","EPHEMERIS_TYPE":"0","ELEMENT_SET_NO":"999","RCS_SIZE":"LARGE"},{"SITE":"AFETR","NORAD_CAT_ID":"48657","OBJECT_NAME":"STARLINK-2734","TLE_LINE2":"2 48657  53.0553 316.1133 0001801  51.1612 308.9538 15.06400439 76772","FILE":"3600107","DECAY_DATE":null,"MEAN_ANOMALY":"308.9538","TIME_SYSTEM":"UTC","SEMIMAJOR_AXIS":"6925.347","ARG_OF_PERICENTER":"51.1612","OBJECT_TYPE":"PAYLOAD","PERIAPSIS":"545.965","LAUNCH_DATE":"2021-05-26","MEAN_MOTION_DOT":"0.00001748","APOAPSIS":"548.459","REF_FRAME":"TEME","OBJECT_ID":"2021-044V","GP_ID":"214634081","CLASSIFICATION_TYPE":"U","BSTAR":"0.00013620000000","COUNTRY_CODE":"US","PERIOD":"95.592","EPHEMERIS_TYPE":"0","MEAN_MOTION":"15.06400439","INCLINATION":"53.0553","MEAN_MOTION_DDOT":"0.0000000000000","RCS_SIZE":"LARGE","ELEMENT_SET_NO":"999","TLE_LINE1":"1 48657U 21044V   22283.47089965  .00001748  00000-0  13620-3 0  9991","ECCENTRICITY":"0.00018010","EPOCH":"2022-10-10T11:18:05.729760","CENTER_NAME":"EARTH","RA_OF_ASC_NODE":"316.1133","REV_AT_EPOCH":"7677","MEAN_ELEMENT_THEORY":"SGP4"},{"TLE_LINE2":"2 48658  53.0542 316.1391 0001928  51.2595 308.8566 15.06391326 75872","OBJECT_NAME":"STARLINK-2647","SITE":"AFETR","NORAD_CAT_ID":"48658","TIME_SYSTEM":"UTC","SEMIMAJOR_AXIS":"6925.375","DECAY_DATE":null,"MEAN_ANOMALY":"308.8566","FILE":"3600948","MEAN_MOTION_DOT":"0.00001574","LAUNCH_DATE":"2021-05-26","PERIAPSIS":"545.905","OBJECT_TYPE":"PAYLOAD","ARG_OF_PERICENTER":"51.2595","BSTAR":"0.00012456000000","CLASSIFICATION_TYPE":"U","GP_ID":"214674453","OBJECT_ID":"2021-044W","REF_FRAME":"TEME","APOAPSIS":"548.575","ELEMENT_SET_NO":"999","RCS_SIZE":"LARGE","MEAN_MOTION_DDOT":"0.0000000000000","INCLINATION":"53.0542","MEAN_MOTION":"15.06391326","EPHEMERIS_TYPE":"0","PERIOD":"95.593","COUNTRY_CODE":"US","TLE_LINE1":"1 48658U 21044W   22283.46721576  .00001574  00000-0  12456-3 0  9995","REV_AT_EPOCH":"7587","RA_OF_ASC_NODE":"316.1391","CENTER_NAME":"EARTH","EPOCH":"2022-10-10T11:12:47.441664","ECCENTRICITY":"0.00019280","MEAN_ELEMENT_THEORY":"SGP4"},{"APOAPSIS":"548.665","REF_FRAME":"TEME","OBJECT_ID":"2021-044X","GP_ID":"214717705","CLASSIFICATION_TYPE":"U","BSTAR":"0.00015668000000","ARG_OF_PERICENTER":"48.8122","OBJECT_TYPE":"PAYLOAD","PERIAPSIS":"545.790","LAUNCH_DATE":"2021-05-26","MEAN_MOTION_DOT":"0.00002053","FILE":"3601747","MEAN_ANOMALY":"311.3046","DECAY_DATE":null,"SEMIMAJOR_AXIS":"6925.363","TIME_SYSTEM":"UTC","SITE":"AFETR","NORAD_CAT_ID":"48659","TLE_LINE2":"2 48659  53.0563 314.6630 0002076  48.8122 311.3046 15.06395391 75922","OBJECT_NAME":"STARLINK-2717","MEAN_ELEMENT_THEORY":"SGP4","ECCENTRICITY":"0.00020760","EPOCH":"2022-10-10T19:05:10.589280","CENTER_NAME":"EARTH","RA_OF_ASC_NODE":"314.6630","REV_AT_EPOCH":"7592","TLE_LINE1":"1 48659U 21044X   22283.79526145  .00002053  00000-0  15668-3 0  9998","COUNTRY_CODE":"US","PERIOD":"95.592","MEAN_MOTION":"15.06395391","EPHEMERIS_TYPE":"0","MEAN_MOTION_DDOT":"0.0000000000000","INCLINATION":"53.0563","RCS_SIZE":"LARGE","ELEMENT_SET_NO":"999"},{"TLE_LINE1":"1 48660U 21044Y   22283.45983880  .00001925  00000-0  14807-3 0  9997","RCS_SIZE":"LARGE","ELEMENT_SET_NO":"999","MEAN_MOTION":"15.06399000","EPHEMERIS_TYPE":"0","MEAN_MOTION_DDOT":"0.0000000000000","INCLINATION":"53.0544","PERIOD":"95.592","COUNTRY_CODE":"US","MEAN_ELEMENT_THEORY":"SGP4","RA_OF_ASC_NODE":"316.1661","REV_AT_EPOCH":"7587","CENTER_NAME":"EARTH","EPOCH":"2022-10-10T11:02:10.072320","ECCENTRICITY":"0.00017530","TIME_SYSTEM":"UTC","SEMIMAJOR_AXIS":"6925.352","MEAN_ANOMALY":"310.3154","DECAY_DATE":null,"FILE":"3600948","OBJECT_NAME":"STARLINK-2688","TLE_LINE2":"2 48660  53.0544 316.1661 0001753  49.7988 310.3154 15.06399000 75879","NORAD_CAT_ID":"48660","SITE":"AFETR","CLASSIFICATION_TYPE":"U","BSTAR":"0.00014807000000","REF_FRAME":"TEME","GP_ID":"214675452","OBJECT_ID":"2021-044Y","APOAPSIS":"548.431","MEAN_MOTION_DOT":"0.00001925","OBJECT_TYPE":"PAYLOAD","LAUNCH_DATE":"2021-05-26","PERIAPSIS":"546.003","ARG_OF_PERICENTER":"49.7988"}];
